      2.10          N: GNSS NAV DATA                        RINEX VERSION / TYPE
fic2rin                                 01/03/2024 00:17:43 PGM / RUN BY / DATE
                                                            END OF HEADER
7  24  1  2  1 59 44.0 -.269468873739D-04 -.943600753089D-11  .000000000000D+00
     .200000000000D+01  .943750000000D+01  .478877090010D-08  .659534736635D+00
     .687316060066D-06  .177418873645D-01  .964663922787D-05  .515368536758D+04
     .179984000000D+06 -.251457095146D-06  .151178590096D+01  .119209289551D-06
     .949884078667D+00  .191906250000D+03 -.215973804953D+01 -.833463288520D-08
     .111790370803D-09  .100000000000D+01  .229500000000D+04  .000000000000D+00
     .240000000000D+01  .000000000000D+00 -.111758708954D-07  .200000000000D+01
     .172800000000D+06  .400000000000D+01
30 24  1  2  5 59 44.0 -.450395047665D-03  .454747350886D-11  .000000000000D+00
     .120000000000D+02  .130000000000D+02  .504913888833D-08  .266536409338D+01
     .573694705963D-06  .665232830215D-02  .101458281279D-04  .515371342087D+04
     .194384000000D+06 -.372529029846D-07  .151446934768D+01 -.782310962677D-07
     .935021945726D+00  .168968750000D+03 -.255040890503D+01 -.812855287257D-08
     .232152527227D-09  .100000000000D+01  .229500000000D+04  .000000000000D+00
     .240000000000D+01  .000000000000D+00  .372529029846D-08  .120000000000D+02
     .191460000000D+06  .400000000000D+01
13 24  1  2  5 59 44.0  .611778348684D-03  .375166564481D-11  .000000000000D+00
     .300000000000D+01 -.703437500000D+02  .429017870316D-08 -.100454132697D+01
    -.365078449249D-05  .775353168137D-02  .889599323273D-05  .515366360855D+04
     .194384000000D+06  .117346644402D-06  .603197784809D+00  .163912773132D-06
     .970879456158D+00  .212437500000D+03  .949369674246D+00 -.797211778499D-08
    -.186079179516D-09  .100000000000D+01  .229500000000D+04  .000000000000D+00
     .240000000000D+01  .000000000000D+00 -.111758708954D-07  .300000000000D+01
     .193200000000D+06  .400000000000D+01
13 24  1  2  7 59 44.0  .611805822700D-03  .375166564481D-11  .000000000000D+00
     .140000000000D+02 -.672187500000D+02  .436125309227D-08  .456313802273D-01
    -.341422855854D-05  .775380944833D-02  .892393290997D-05  .515366398811D+04
     .201584000000D+06  .000000000000D+00  .603139746460D+00  .987201929092D-07
     .970877785505D+00  .210687500000D+03  .949382985338D+00 -.806676458455D-08
    -.174650132022D-09  .100000000000D+01  .229500000000D+04  .000000000000D+00
     .240000000000D+01  .000000000000D+00 -.111758708954D-07  .140000000000D+02
     .194400000000D+06  .400000000000D+01
30 24  1  2  7 59 44.0 -.450362451375D-03  .454747350886D-11  .000000000000D+00
     .130000000000D+02  .189062500000D+02  .498949354672D-08 -.256769510054D+01
     .795349478722D-06  .665132212453D-02  .984780490398D-05  .515371525955D+04
     .201584000000D+06 -.745058059692D-08  .151441098164D+01 -.540167093277D-07
     .935023674895D+00  .174968750000D+03 -.255037573922D+01 -.810855203945D-08
     .230366738556D-09  .100000000000D+01  .229500000000D+04  .000000000000D+00
     .240000000000D+01  .000000000000D+00  .372529029846D-08  .130000000000D+02
     .194400000000D+06  .400000000000D+01
2  24  1  2  8  0  0.0 -.506877899170D-03  .545696821064D-11  .000000000000D+00
     .103000000000D+03  .297812500000D+02  .439018286874D-08  .778260425168D+00
     .132247805595D-05  .163034033030D-01  .797770917416D-05  .515390046120D+04
     .201600000000D+06 -.128522515297D-06 -.171408498627D+01 -.277534127235D-06
     .967421385532D+00  .234875000000D+03 -.127368538033D+01 -.826427281156D-08
     .746459664470D-10  .100000000000D+01  .229500000000D+04  .000000000000D+00
     .340000000000D+01  .000000000000D+00 -.176951289177D-07  .103000000000D+03
     .194400000000D+06  .400000000000D+01
1  24  1  2  8  0  0.0  .165089964867D-03  .795807864051D-12  .000000000000D+00
     .106000000000D+03  .472187500000D+02  .378372903607D-08 -.184521253063D+01
     .237487256527D-05  .130624269368D-01  .736303627491D-05  .515402191544D+04
     .201600000000D+06  .229105353355D-06 -.161057891665D+01 -.856816768646D-07
     .990350919200D+00  .250468750000D+03  .998502301663D+00 -.758960185167D-08
     .229652423088D-09  .100000000000D+01  .229500000000D+04  .000000000000D+00
     .485000000000D+01  .630000000000D+02  .512227416039D-08  .106000000000D+03
     .194400000000D+06  .400000000000D+01
5  24  1  2  8  0  0.0 -.156419351697D-03 -.147792889038D-11  .000000000000D+00
     .380000000000D+02 -.100000000000D+02  .465876548485D-08  .690755573565D+00
    -.379979610443D-06  .578655756544D-02  .440888106823D-05  .515378051376D+04
     .201600000000D+06 -.558793544769D-07 -.630876736148D+00  .558793544769D-08
     .969356687174D+00  .300843750000D+03  .123555030979D+01 -.836927718542D-08
     .982183769039D-10  .100000000000D+01  .229500000000D+04  .000000000000D+00
     .240000000000D+01  .000000000000D+00 -.111758708954D-07  .380000000000D+02
     .194400000000D+06  .400000000000D+01
3  24  1  2  8  0  0.0  .978517346084D-04  .266027200269D-10  .000000000000D+00
     .670000000000D+02 -.145625000000D+02  .425732019162D-08 -.285786540042D+01
    -.685453414917D-06  .506721553393D-02  .434555113316D-05  .515353785133D+04
     .201600000000D+06  .115483999252D-06 -.581457006670D+00 -.577419996262D-07
     .982389337191D+00  .305750000000D+03  .110152622713D+01 -.801533387083D-08
     .122862260563D-09  .100000000000D+01  .229500000000D+04  .000000000000D+00
     .340000000000D+01  .000000000000D+00  .186264514923D-08  .670000000000D+02
     .194400000000D+06  .400000000000D+01
7  24  1  2  8  0  0.0 -.271503813565D-04 -.943600753089D-11  .000000000000D+00
     .140000000000D+02  .144375000000D+02  .459947730098D-08 -.247085969599D+01
     .545755028725D-06  .177434763173D-01  .944919884205D-05  .515368557739D+04
     .201600000000D+06  .147148966789D-06  .151161270609D+01 -.121071934700D-06
     .949891263058D+00  .188343750000D+03 -.215967387131D+01 -.772210737105D-08
     .296440919383D-09  .100000000000D+01  .229500000000D+04  .000000000000D+00
     .240000000000D+01  .000000000000D+00 -.111758708954D-07  .140000000000D+02
     .194400000000D+06  .400000000000D+01
6  24  1  2  8  0  0.0  .458604190499D-03 -.126192389871D-10  .000000000000D+00
     .530000000000D+02  .557812500000D+02  .382623080644D-08 -.157179015727D+01
     .283680856228D-05  .308628624771D-02  .841729342937D-05  .515354131889D+04
     .201600000000D+06 -.614672899246D-07 -.161895497408D+01  .130385160446D-07
     .989479935811D+00  .236187500000D+03 -.824300572502D+00 -.778353850134D-08
     .205722854897D-09  .100000000000D+01  .229500000000D+04  .000000000000D+00
     .240000000000D+01  .000000000000D+00  .372529029846D-08  .530000000000D+02
     .194400000000D+06  .400000000000D+01
4  24  1  2  8  0  0.0  .255479477346D-03  .989075488178D-11  .000000000000D+00
     .750000000000D+02 -.668750000000D+02  .442661295763D-08  .114073117500D+00
    -.363402068615D-05  .277638947591D-02  .805035233498D-05  .515359918785D+04
     .201600000000D+06 -.242143869400D-07  .497882323986D+00  .260770320892D-07
     .964211374611D+00  .224000000000D+03 -.302333390218D+01 -.802283418325D-08
    -.170007081477D-09  .100000000000D+01  .229500000000D+04  .000000000000D+00
     .240000000000D+01  .000000000000D+00 -.465661287308D-08  .843000000000D+03
     .194400000000D+06  .400000000000D+01
23 24  1  2  8  0  0.0  .127431470901D-03  .727595761418D-11  .000000000000D+00
     .600000000000D+01 -.106562500000D+02  .434982404477D-08 -.273228387797D+01
    -.508502125740D-06  .394411932211D-02  .482611358166D-05  .515370049095D+04
     .201600000000D+06 -.104308128357D-06 -.612314393307D+00 -.577419996262D-07
     .977207921272D+00  .296343750000D+03 -.299256772263D+01 -.806783605776D-08
     .133934150324D-09  .100000000000D+01  .229500000000D+04  .000000000000D+00
     .240000000000D+01  .000000000000D+00 -.838190317154D-08  .600000000000D+01
     .194400000000D+06  .400000000000D+01
12 24  1  2  8  0  0.0 -.463709700853D-03 -.386535248253D-11  .000000000000D+00
     .510000000000D+02  .219375000000D+02  .459483425043D-08  .312437760417D+01
     .121444463730D-05  .887387653347D-02  .613369047642D-05  .515372903824D+04
     .201600000000D+06  .875443220139D-07  .262713083470D+01 -.465661287308D-07
     .963589861180D+00  .260656250000D+03  .140073667316D+01 -.796497463031D-08
    -.403588239642D-10  .100000000000D+01  .229500000000D+04  .000000000000D+00
     .240000000000D+01  .000000000000D+00 -.125728547573D-07  .510000000000D+02
     .194400000000D+06  .400000000000D+01
